ONEWEB-0531             
1 54146U 22138AK  24138.55856624  .00000025  00000+0  29031-4 0  9990
2 54146  87.9216  65.7731 0002868  62.2735 297.8689 13.20773949 79777
ONEWEB-0535             
1 54147U 22138AL  24138.63687331 -.00000025  00000+0 -94751-4 0  9990
2 54147  87.9127  96.3207 0002071  75.6594 284.4769 13.19726607 76522
ONEWEB-0536             
1 54148U 22138AM  24138.54593583 -.00000013  00000+0 -62822-4 0  9997
2 54148  87.9216  65.8249 0002364  53.1123 307.0227 13.20774705 78890
ONEWEB-0527             
1 54642U 22166A   24138.95233905  .00000106  00000+0  22593-3 0  9992
2 54642  87.9317  35.3228 0002057  80.9529 279.1838 13.21827804 71101
ONEWEB-0528             
1 54643U 22166B   24138.95865048  .00000117  00000+0  25078-3 0  9995
2 54643  87.9323  35.3072 0001996  85.3746 274.7616 13.21827607 71114
ONEWEB-0539             
1 54644U 22166C   24138.69212841  .00000016  00000+0  73692-5 0  9999
2 54644  87.9322  35.3621 0001642  79.9543 280.1776 13.21827820 71076
ONEWEB-0540             
1 54645U 22166D   24138.68661342  .00000034  00000+0  50800-4 0  9998
2 54645  87.9317  35.3832 0001544  83.9881 276.1429 13.21828161 71064
ONEWEB-0542             
1 54646U 22166E   24138.47450003  .00000037  00000+0  57564-4 0  9993
2 54646  87.9321  35.4051 0001449  71.5719 288.5573 13.21827681 71042
